{"fetched_at":"2026-07-16T17:46:03.568Z","source":"https://celestrak.org/NORAD/elements/gp.php?GROUP=kuiper&FORMAT=JSON","constellation":"kuiper","records":[{"OBJECT_NAME":"KUIPER-00117","OBJECT_ID":"2025-228C","EPOCH":"2026-07-16T06:35:48.408576","CLASSIFICATION_TYPE":"U","MEAN_MOTION":14.79941103,"ECCENTRICITY":0.00007669,"INCLINATION":51.8978,"RA_OF_ASC_NODE":149.47,"ARG_OF_PERICENTER":71.8162,"MEAN_ANOMALY":288.2884,"EPHEMERIS_TYPE":0,"NORAD_CAT_ID":65949,"ELEMENT_SET_NO":999,"REV_AT_EPOCH":4230,"BSTAR":0.00021202497,"MEAN_MOTION_DOT":0.00001396,"MEAN_MOTION_DDOT":0},{"OBJECT_NAME":"KUIPER-00121","OBJECT_ID":"2025-228D","EPOCH":"2026-07-16T01:03:12.526272","CLASSIFICATION_TYPE":"U","MEAN_MOTION":14.79940444,"ECCENTRICITY":0.00007599,"INCLINATION":51.9,"RA_OF_ASC_NODE":145.4998,"ARG_OF_PERICENTER":123.8104,"MEAN_ANOMALY":236.293,"EPHEMERIS_TYPE":0,"NORAD_CAT_ID":65950,"ELEMENT_SET_NO":999,"REV_AT_EPOCH":4234,"BSTAR":-0.00016570345,"MEAN_MOTION_DOT":-0.00001484,"MEAN_MOTION_DDOT":0},{"OBJECT_NAME":"KUIPER-00122","OBJECT_ID":"2025-228E","EPOCH":"2026-07-16T04:02:10.275936","CLASSIFICATION_TYPE":"U","MEAN_MOTION":14.7992837,"ECCENTRICITY":0.00007198,"INCLINATION":51.8998,"RA_OF_ASC_NODE":154.927,"ARG_OF_PERICENTER":70.0939,"MEAN_ANOMALY":290.0101,"EPHEMERIS_TYPE":0,"NORAD_CAT_ID":65951,"ELEMENT_SET_NO":999,"REV_AT_EPOCH":4222,"BSTAR":0.00001344566,"MEAN_MOTION_DOT":-0.00000119,"MEAN_MOTION_DDOT":0},{"OBJECT_NAME":"KUIPER-00123","OBJECT_ID":"2025-228F","EPOCH":"2026-07-16T06:28:02.840448","CLASSIFICATION_TYPE":"U","MEAN_MOTION":14.79933436,"ECCENTRICITY":0.00007598,"INCLINATION":51.8983,"RA_OF_ASC_NODE":154.4923,"ARG_OF_PERICENTER":62.2877,"MEAN_ANOMALY":297.8163,"EPHEMERIS_TYPE":0,"NORAD_CAT_ID":65952,"ELEMENT_SET_NO":999,"REV_AT_EPOCH":4223,"BSTAR":0.00020320921,"MEAN_MOTION_DOT":0.00001328,"MEAN_MOTION_DDOT":0},{"OBJECT_NAME":"KUIPER-00124","OBJECT_ID":"2025-228G","EPOCH":"2026-07-16T06:39:41.306688","CLASSIFICATION_TYPE":"U","MEAN_MOTION":14.79933478,"ECCENTRICITY":0.00007295,"INCLINATION":51.8979,"RA_OF_ASC_NODE":146.945,"ARG_OF_PERICENTER":78.5611,"MEAN_ANOMALY":281.5433,"EPHEMERIS_TYPE":0,"NORAD_CAT_ID":65953,"ELEMENT_SET_NO":999,"REV_AT_EPOCH":4234,"BSTAR":0.00020822248,"MEAN_MOTION_DOT":0.00001367,"MEAN_MOTION_DDOT":0},{"OBJECT_NAME":"KUIPER-00125","OBJECT_ID":"2025-228H","EPOCH":"2026-07-16T05:25:45.916896","CLASSIFICATION_TYPE":"U","MEAN_MOTION":14.79928837,"ECCENTRICITY":0.00009638,"INCLINATION":51.9016,"RA_OF_ASC_NODE":132.215,"ARG_OF_PERICENTER":78.3554,"MEAN_ANOMALY":281.7517,"EPHEMERIS_TYPE":0,"NORAD_CAT_ID":65954,"ELEMENT_SET_NO":999,"REV_AT_EPOCH":4254,"BSTAR":-0.000063911286,"MEAN_MOTION_DOT":-0.00000708,"MEAN_MOTION_DDOT":0},{"OBJECT_NAME":"KUIPER-00126","OBJECT_ID":"2025-228J","EPOCH":"2026-07-16T05:43:18.393312","CLASSIFICATION_TYPE":"U","MEAN_MOTION":14.7993321,"ECCENTRICITY":0.00007423,"INCLINATION":51.8997,"RA_OF_ASC_NODE":152.1481,"ARG_OF_PERICENTER":77.2372,"MEAN_ANOMALY":282.8673,"EPHEMERIS_TYPE":0,"NORAD_CAT_ID":65955,"ELEMENT_SET_NO":999,"REV_AT_EPOCH":4226,"BSTAR":0.00022311464,"MEAN_MOTION_DOT":0.0000148,"MEAN_MOTION_DDOT":0},{"OBJECT_NAME":"KUIPER-00127","OBJECT_ID":"2025-228K","EPOCH":"2026-07-16T07:07:53.569056","CLASSIFICATION_TYPE":"U","MEAN_MOTION":14.79938021,"ECCENTRICITY":0.00009043,"INCLINATION":51.9008,"RA_OF_ASC_NODE":144.36,"ARG_OF_PERICENTER":76.2031,"MEAN_ANOMALY":283.9032,"EPHEMERIS_TYPE":0,"NORAD_CAT_ID":65956,"ELEMENT_SET_NO":999,"REV_AT_EPOCH":4238,"BSTAR":0.00023113225,"MEAN_MOTION_DOT":0.00001541,"MEAN_MOTION_DDOT":0},{"OBJECT_NAME":"KUIPER-00128","OBJECT_ID":"2025-228L","EPOCH":"2026-07-16T06:43:35.599296","CLASSIFICATION_TYPE":"U","MEAN_MOTION":14.79933957,"ECCENTRICITY":0.00007212,"INCLINATION":51.901,"RA_OF_ASC_NODE":144.4996,"ARG_OF_PERICENTER":76.337,"MEAN_ANOMALY":283.7672,"EPHEMERIS_TYPE":0,"NORAD_CAT_ID":65957,"ELEMENT_SET_NO":999,"REV_AT_EPOCH":4237,"BSTAR":0.00022566718,"MEAN_MOTION_DOT":0.000015,"MEAN_MOTION_DDOT":0},{"OBJECT_NAME":"KUIPER-00129","OBJECT_ID":"2025-228M","EPOCH":"2026-07-16T06:02:44.150496","CLASSIFICATION_TYPE":"U","MEAN_MOTION":14.79931309,"ECCENTRICITY":0.00006497,"INCLINATION":51.9,"RA_OF_ASC_NODE":139.6063,"ARG_OF_PERICENTER":91.267,"MEAN_ANOMALY":268.8367,"EPHEMERIS_TYPE":0,"NORAD_CAT_ID":65958,"ELEMENT_SET_NO":999,"REV_AT_EPOCH":4244,"BSTAR":0.00021931374,"MEAN_MOTION_DOT":0.00001451,"MEAN_MOTION_DDOT":0},{"OBJECT_NAME":"KUIPER-00130","OBJECT_ID":"2025-228N","EPOCH":"2026-07-16T05:10:12.692352","CLASSIFICATION_TYPE":"U","MEAN_MOTION":14.79926727,"ECCENTRICITY":0.0000704,"INCLINATION":51.9022,"RA_OF_ASC_NODE":142.3019,"ARG_OF_PERICENTER":88.6103,"MEAN_ANOMALY":271.494,"EPHEMERIS_TYPE":0,"NORAD_CAT_ID":65959,"ELEMENT_SET_NO":999,"REV_AT_EPOCH":3269,"BSTAR":0.000027904754,"MEAN_MOTION_DOT":-8e-8,"MEAN_MOTION_DDOT":0},{"OBJECT_NAME":"KUIPER-00134","OBJECT_ID":"2025-228P","EPOCH":"2026-07-16T01:05:42.030240","CLASSIFICATION_TYPE":"U","MEAN_MOTION":15.41845043,"ECCENTRICITY":0.00067005,"INCLINATION":51.8707,"RA_OF_ASC_NODE":56.8964,"ARG_OF_PERICENTER":56.8466,"MEAN_ANOMALY":303.3164,"EPHEMERIS_TYPE":0,"NORAD_CAT_ID":65960,"ELEMENT_SET_NO":999,"REV_AT_EPOCH":4357,"BSTAR":0.00029979055,"MEAN_MOTION_DOT":0.00012537,"MEAN_MOTION_DDOT":0},{"OBJECT_NAME":"KUIPER-00135","OBJECT_ID":"2025-228Q","EPOCH":"2026-07-16T05:58:52.315104","CLASSIFICATION_TYPE":"U","MEAN_MOTION":14.79929755,"ECCENTRICITY":0.00008573,"INCLINATION":51.9016,"RA_OF_ASC_NODE":142.2057,"ARG_OF_PERICENTER":82.5655,"MEAN_ANOMALY":277.5404,"EPHEMERIS_TYPE":0,"NORAD_CAT_ID":65961,"ELEMENT_SET_NO":999,"REV_AT_EPOCH":4240,"BSTAR":0.000007246047,"MEAN_MOTION_DOT":-0.00000166,"MEAN_MOTION_DDOT":0},{"OBJECT_NAME":"KUIPER-00136","OBJECT_ID":"2025-228R","EPOCH":"2026-07-16T05:14:06.749952","CLASSIFICATION_TYPE":"U","MEAN_MOTION":14.79929045,"ECCENTRICITY":0.00008257,"INCLINATION":51.9007,"RA_OF_ASC_NODE":139.798,"ARG_OF_PERICENTER":76.2234,"MEAN_ANOMALY":283.882,"EPHEMERIS_TYPE":0,"NORAD_CAT_ID":65962,"ELEMENT_SET_NO":999,"REV_AT_EPOCH":4243,"BSTAR":0.000062255439,"MEAN_MOTION_DOT":0.00000253,"MEAN_MOTION_DDOT":0},{"OBJECT_NAME":"KUIPER-00137","OBJECT_ID":"2025-228S","EPOCH":"2026-07-16T05:17:46.800384","CLASSIFICATION_TYPE":"U","MEAN_MOTION":14.79891481,"ECCENTRICITY":0.00009219,"INCLINATION":51.9027,"RA_OF_ASC_NODE":137.2801,"ARG_OF_PERICENTER":80.0332,"MEAN_ANOMALY":280.0734,"EPHEMERIS_TYPE":0,"NORAD_CAT_ID":65963,"ELEMENT_SET_NO":999,"REV_AT_EPOCH":4247,"BSTAR":0.00016172941,"MEAN_MOTION_DOT":0.00001011,"MEAN_MOTION_DDOT":0},{"OBJECT_NAME":"KUIPER-00138","OBJECT_ID":"2025-228T","EPOCH":"2026-07-16T04:33:13.697568","CLASSIFICATION_TYPE":"U","MEAN_MOTION":14.7993352,"ECCENTRICITY":0.0000976,"INCLINATION":51.8979,"RA_OF_ASC_NODE":134.8493,"ARG_OF_PERICENTER":46.4697,"MEAN_ANOMALY":313.6347,"EPHEMERIS_TYPE":0,"NORAD_CAT_ID":65964,"ELEMENT_SET_NO":999,"REV_AT_EPOCH":4250,"BSTAR":0.00019505249,"MEAN_MOTION_DOT":0.00001266,"MEAN_MOTION_DDOT":0}]}
